"Id","IsDeleted","Name","CreatedDate","CreatedById","LastModifiedDate","LastModifiedById","SystemModstamp","LastActivityDate","HierarchyId__c","ChildClassificationId__c","ChildLeft__c","ChildLevel__c","ChildProductId__c","ChildRight__c","IsDetail__c","ParentClassificationId__c","ParentLeft__c","ParentLevel__c","ParentRight__c","RelationshipType__c"
"a0nE0000000V91jIAC","0","PV-0000002350","2012-10-08 04:56:53","005E0000001em2EIAQ","2012-10-12 21:54:17","005E0000001em2EIAQ","2012-10-12 21:54:17","","a08E000000BAbbMIAT","","2","1","","3","1","a07E00000045he5IAA","1","0","10","Classification Node"
"a0nE0000000V91kIAC","0","PV-0000002351","2012-10-08 04:56:53","005E0000001em2EIAQ","2012-10-12 21:54:17","005E0000001em2EIAQ","2012-10-12 21:54:17","","a08E000000BAbbMIAT","","2","1","","3","1","","2","1","3","Classification Node"
"a0nE0000000V91lIAC","0","PV-0000002352","2012-10-08 04:56:53","005E0000001em2EIAQ","2012-10-08 04:56:53","005E0000001em2EIAQ","2012-10-08 04:56:53","","a08E000000BAbbMIAT","a07E00000045he5IAA","1","0","","10","0","a07E00000045he5IAA","1","0","10","Root Node"
"a0nE0000000V91mIAC","0","PV-0000002353","2012-10-08 04:56:53","005E0000001em2EIAQ","2012-10-12 21:54:22","005E0000001em2EIAQ","2012-10-12 21:54:22","","a08E000000BAbbMIAT","","4","1","","5","1","a07E00000045he5IAA","1","0","10","Classification Node"
"a0nE0000000V91nIAC","0","PV-0000002354","2012-10-08 04:56:53","005E0000001em2EIAQ","2012-10-12 21:54:22","005E0000001em2EIAQ","2012-10-12 21:54:22","","a08E000000BAbbMIAT","","4","1","","5","1","","4","1","5","Classification Node"
"a0nE0000000V91oIAC","0","PV-0000002355","2012-10-08 04:56:53","005E0000001em2EIAQ","2012-10-08 04:56:53","005E0000001em2EIAQ","2012-10-08 04:56:53","","a08E000000BAbbMIAT","a07E00000045heAIAQ","6","1","","7","1","a07E00000045he5IAA","1","0","10","Classification Node"
"a0nE0000000V91pIAC","0","PV-0000002356","2012-10-08 04:56:53","005E0000001em2EIAQ","2012-10-08 04:56:53","005E0000001em2EIAQ","2012-10-08 04:56:53","","a08E000000BAbbMIAT","a07E00000045heAIAQ","6","1","","7","1","a07E00000045heAIAQ","6","1","7","Classification Node"
"a0nE0000000V91qIAC","0","PV-0000002357","2012-10-08 04:56:53","005E0000001em2EIAQ","2012-10-08 04:56:53","005E0000001em2EIAQ","2012-10-08 04:56:53","","a08E000000BAbbMIAT","","0","2","01tE0000001bn9MIAQ","0","1","a07E00000045he5IAA","1","0","10","Product Node"
"a0nE0000000V91rIAC","0","PV-0000002358","2012-10-08 04:56:53","005E0000001em2EIAQ","2012-10-08 04:56:53","005E0000001em2EIAQ","2012-10-08 04:56:53","","a08E000000BAbbMIAT","","0","2","01tE0000001bn9MIAQ","0","1","a07E00000045heAIAQ","6","1","7","Product Node"
"a0nE0000000V91sIAC","0","PV-0000002359","2012-10-08 04:56:53","005E0000001em2EIAQ","2012-10-08 04:56:53","005E0000001em2EIAQ","2012-10-08 04:56:53","","a08E000000BAbbMIAT","a07E00000045hgFIAQ","8","1","","9","1","a07E00000045he5IAA","1","0","10","Classification Node"
"a0nE0000000V91tIAC","0","PV-0000002360","2012-10-08 04:56:53","005E0000001em2EIAQ","2012-10-08 04:56:53","005E0000001em2EIAQ","2012-10-08 04:56:53","","a08E000000BAbbMIAT","a07E00000045hgFIAQ","8","1","","9","1","a07E00000045hgFIAQ","8","1","9","Classification Node"
"a0nE0000000V91uIAC","0","PV-0000002361","2012-10-08 04:56:53","005E0000001em2EIAQ","2012-10-08 04:56:53","005E0000001em2EIAQ","2012-10-08 04:56:53","","a08E000000BAbbMIAT","","0","2","01tE0000001bnB3IAI","0","1","a07E00000045he5IAA","1","0","10","Product Node"
"a0nE0000000V91vIAC","0","PV-0000002362","2012-10-08 04:56:53","005E0000001em2EIAQ","2012-10-08 04:56:53","005E0000001em2EIAQ","2012-10-08 04:56:53","","a08E000000BAbbMIAT","","0","2","01tE0000001bnB3IAI","0","1","a07E00000045hgFIAQ","8","1","9","Product Node"
"a0nE0000000V91wIAC","0","PV-0000002363","2012-10-08 04:56:53","005E0000001em2EIAQ","2012-10-08 04:56:53","005E0000001em2EIAQ","2012-10-08 04:56:53","","a08E000000BAbbMIAT","","0","2","01tE0000001bnAKIAY","0","1","a07E00000045he5IAA","1","0","10","Product Node"
"a0nE0000000V91xIAC","0","PV-0000002364","2012-10-08 04:56:53","005E0000001em2EIAQ","2012-10-08 04:56:53","005E0000001em2EIAQ","2012-10-08 04:56:53","","a08E000000BAbbMIAT","","0","2","01tE0000001bnAKIAY","0","1","a07E00000045hgFIAQ","8","1","9","Product Node"
"a0nE0000000V91zIAC","0","PV-0000002365","2012-10-08 04:57:05","005E0000001em2EIAQ","2012-10-08 04:57:05","005E0000001em2EIAQ","2012-10-08 04:57:05","","a08E000000BAmGCIA1","a07E00000045l9jIAA","2","1","","3","1","a07E00000045l9QIAQ","1","0","8","Classification Node"
"a0nE0000000V920IAC","0","PV-0000002366","2012-10-08 04:57:05","005E0000001em2EIAQ","2012-10-08 04:57:05","005E0000001em2EIAQ","2012-10-08 04:57:05","","a08E000000BAmGCIA1","a07E00000045l9jIAA","2","1","","3","1","a07E00000045l9jIAA","2","1","3","Classification Node"
"a0nE0000000V921IAC","0","PV-0000002367","2012-10-08 04:57:05","005E0000001em2EIAQ","2012-10-08 04:57:05","005E0000001em2EIAQ","2012-10-08 04:57:05","","a08E000000BAmGCIA1","","0","2","01tE0000001bpUlIAI","0","1","a07E00000045l9QIAQ","1","0","8","Product Node"
"a0nE0000000V922IAC","0","PV-0000002368","2012-10-08 04:57:05","005E0000001em2EIAQ","2012-10-08 04:57:05","005E0000001em2EIAQ","2012-10-08 04:57:05","","a08E000000BAmGCIA1","","0","2","01tE0000001bpUlIAI","0","1","a07E00000045l9jIAA","2","1","3","Product Node"
"a0nE0000000V923IAC","0","PV-0000002369","2012-10-08 04:57:05","005E0000001em2EIAQ","2012-10-08 04:57:05","005E0000001em2EIAQ","2012-10-08 04:57:05","","a08E000000BAmGCIA1","","0","2","01tE0000001bpUqIAI","0","1","a07E00000045l9QIAQ","1","0","8","Product Node"
"a0nE0000000V924IAC","0","PV-0000002370","2012-10-08 04:57:05","005E0000001em2EIAQ","2012-10-08 04:57:05","005E0000001em2EIAQ","2012-10-08 04:57:05","","a08E000000BAmGCIA1","","0","2","01tE0000001bpUqIAI","0","1","a07E00000045l9jIAA","2","1","3","Product Node"
"a0nE0000000V925IAC","0","PV-0000002371","2012-10-08 04:57:05","005E0000001em2EIAQ","2012-10-08 04:57:05","005E0000001em2EIAQ","2012-10-08 04:57:05","","a08E000000BAmGCIA1","a07E00000045l9QIAQ","1","0","","8","0","a07E00000045l9QIAQ","1","0","8","Root Node"
"a0nE0000000V926IAC","0","PV-0000002372","2012-10-08 04:57:05","005E0000001em2EIAQ","2012-10-08 04:57:05","005E0000001em2EIAQ","2012-10-08 04:57:05","","a08E000000BAmGCIA1","a07E00000045l9oIAA","4","1","","5","1","a07E00000045l9QIAQ","1","0","8","Classification Node"
"a0nE0000000V927IAC","0","PV-0000002373","2012-10-08 04:57:05","005E0000001em2EIAQ","2012-10-08 04:57:05","005E0000001em2EIAQ","2012-10-08 04:57:05","","a08E000000BAmGCIA1","a07E00000045l9oIAA","4","1","","5","1","a07E00000045l9oIAA","4","1","5","Classification Node"
"a0nE0000000V928IAC","0","PV-0000002374","2012-10-08 04:57:05","005E0000001em2EIAQ","2012-10-08 04:57:05","005E0000001em2EIAQ","2012-10-08 04:57:05","","a08E000000BAmGCIA1","","0","2","01tE0000001bpUvIAI","0","1","a07E00000045l9QIAQ","1","0","8","Product Node"
"a0nE0000000V929IAC","0","PV-0000002375","2012-10-08 04:57:05","005E0000001em2EIAQ","2012-10-08 04:57:05","005E0000001em2EIAQ","2012-10-08 04:57:05","","a08E000000BAmGCIA1","","0","2","01tE0000001bpUvIAI","0","1","a07E00000045l9oIAA","4","1","5","Product Node"
"a0nE0000000V92AIAS","0","PV-0000002376","2012-10-08 04:57:05","005E0000001em2EIAQ","2012-10-08 04:57:05","005E0000001em2EIAQ","2012-10-08 04:57:05","","a08E000000BAmGCIA1","","0","2","01tE0000001bpV0IAI","0","1","a07E00000045l9QIAQ","1","0","8","Product Node"
"a0nE0000000V92BIAS","0","PV-0000002377","2012-10-08 04:57:05","005E0000001em2EIAQ","2012-10-08 04:57:05","005E0000001em2EIAQ","2012-10-08 04:57:05","","a08E000000BAmGCIA1","","0","2","01tE0000001bpV0IAI","0","1","a07E00000045l9oIAA","4","1","5","Product Node"
"a0nE0000000V92CIAS","0","PV-0000002378","2012-10-08 04:57:05","005E0000001em2EIAQ","2012-11-29 17:48:58","005E0000001em2EIAQ","2012-11-29 17:48:58","","a08E000000BAmGCIA1","","6","1","","7","1","a07E00000045l9QIAQ","1","0","8","Classification Node"
"a0nE0000000V92DIAS","0","PV-0000002379","2012-10-08 04:57:05","005E0000001em2EIAQ","2012-11-29 17:48:58","005E0000001em2EIAQ","2012-11-29 17:48:58","","a08E000000BAmGCIA1","","6","1","","7","1","","6","1","7","Classification Node"
"a0nE0000000V92HIAS","0","PV-0000002380","2012-10-08 04:57:07","005E0000001em2EIAQ","2012-10-08 04:57:07","005E0000001em2EIAQ","2012-10-08 04:57:07","","a08E000000BAmEBIA1","a07E00000045l7aIAA","1","0","","2","1","a07E00000045l7aIAA","1","0","2","Root Node"
"a0nE0000000V92IIAS","0","PV-0000002381","2012-10-08 04:57:07","005E0000001em2EIAQ","2012-10-08 04:57:07","005E0000001em2EIAQ","2012-10-08 04:57:07","","a08E000000BAmEBIA1","","0","1","01tE0000001bpUgIAI","0","1","a07E00000045l7aIAA","1","0","2","Product Node"
"a0nE0000000V92JIAS","0","PV-0000002382","2012-10-08 04:57:07","005E0000001em2EIAQ","2012-10-08 04:57:07","005E0000001em2EIAQ","2012-10-08 04:57:07","","a08E000000BAmEBIA1","","0","1","01tE0000001bpUWIAY","0","1","a07E00000045l7aIAA","1","0","2","Product Node"
"a0nE0000000V92KIAS","0","PV-0000002383","2012-10-08 04:57:07","005E0000001em2EIAQ","2012-10-08 04:57:07","005E0000001em2EIAQ","2012-10-08 04:57:07","","a08E000000BAmEBIA1","","0","1","01tE0000001bpUbIAI","0","1","a07E00000045l7aIAA","1","0","2","Product Node"
"a0nE0000000VrBqIAK","0","PV-0000004290","2013-01-02 22:52:30","005E0000001em2EIAQ","2013-01-02 22:52:30","005E0000001em2EIAQ","2013-01-02 22:52:30","","a08E000000BAbS9IAL","a07E00000045hPiIAI","1","0","","2","1","a07E00000045hPiIAI","1","0","2","Root Node"
"a0nE0000000VrBrIAK","0","PV-0000004291","2013-01-02 22:52:30","005E0000001em2EIAQ","2013-01-02 22:52:30","005E0000001em2EIAQ","2013-01-02 22:52:30","","a08E000000BAbS9IAL","","0","1","01tE0000001bn97IAA","0","1","a07E00000045hPiIAI","1","0","2","Product Node"
"a0nE0000000VrBsIAK","0","PV-0000004292","2013-01-02 22:52:30","005E0000001em2EIAQ","2013-01-02 22:52:30","005E0000001em2EIAQ","2013-01-02 22:52:30","","a08E000000BAbS9IAL","","0","1","01tE0000001bn9CIAQ","0","1","a07E00000045hPiIAI","1","0","2","Product Node"
"a0nE0000000VrBtIAK","0","PV-0000004293","2013-01-02 22:52:30","005E0000001em2EIAQ","2013-01-02 22:52:30","005E0000001em2EIAQ","2013-01-02 22:52:30","","a08E000000BAbS9IAL","","0","1","01tE0000001bn9HIAQ","0","1","a07E00000045hPiIAI","1","0","2","Product Node"
"a0nE0000000VrBuIAK","0","PV-0000004294","2013-01-02 22:52:30","005E0000001em2EIAQ","2013-01-02 22:52:30","005E0000001em2EIAQ","2013-01-02 22:52:30","","a08E000000BAbS9IAL","","0","1","01tE0000001bn5yIAA","0","1","a07E00000045hPiIAI","1","0","2","Product Node"
"a0nE0000000VsB1IAK","0","PV-0000004338","2013-01-03 18:21:52","005E0000001h3DhIAI","2013-01-03 18:21:52","005E0000001h3DhIAI","2013-01-03 18:21:52","","a08E0000009efHsIAI","a07E0000003VcjQIAS","2","1","","3","1","a07E0000003UgybIAC","1","0","20","Classification Node"
"a0nE0000000VsB2IAK","0","PV-0000004339","2013-01-03 18:21:52","005E0000001h3DhIAI","2013-01-03 18:21:52","005E0000001h3DhIAI","2013-01-03 18:21:52","","a08E0000009efHsIAI","a07E0000003VcjQIAS","2","1","","3","1","a07E0000003VcjQIAS","2","1","3","Classification Node"
"a0nE0000000VsB3IAK","0","PV-0000004340","2013-01-03 18:21:52","005E0000001h3DhIAI","2013-01-03 18:21:52","005E0000001h3DhIAI","2013-01-03 18:21:52","","a08E0000009efHsIAI","","0","2","01tE0000001IQYNIA4","0","1","a07E0000003UgybIAC","1","0","20","Product Node"
"a0nE0000000VsB4IAK","0","PV-0000004341","2013-01-03 18:21:52","005E0000001h3DhIAI","2013-01-03 18:21:52","005E0000001h3DhIAI","2013-01-03 18:21:52","","a08E0000009efHsIAI","","0","2","01tE0000001IQYNIA4","0","1","a07E0000003VcjQIAS","2","1","3","Product Node"
"a0nE0000000VsB5IAK","0","PV-0000004342","2013-01-03 18:21:52","005E0000001h3DhIAI","2013-01-03 18:21:52","005E0000001h3DhIAI","2013-01-03 18:21:52","","a08E0000009efHsIAI","","0","2","01tE0000001IQYVIA4","0","1","a07E0000003UgybIAC","1","0","20","Product Node"
"a0nE0000000VsB6IAK","0","PV-0000004343","2013-01-03 18:21:52","005E0000001h3DhIAI","2013-01-03 18:21:52","005E0000001h3DhIAI","2013-01-03 18:21:52","","a08E0000009efHsIAI","","0","2","01tE0000001IQYVIA4","0","1","a07E0000003VcjQIAS","2","1","3","Product Node"
"a0nE0000000VsB7IAK","0","PV-0000004344","2013-01-03 18:21:52","005E0000001h3DhIAI","2013-01-03 18:21:52","005E0000001h3DhIAI","2013-01-03 18:21:52","","a08E0000009efHsIAI","","0","2","01tE0000001IQYOIA4","0","1","a07E0000003UgybIAC","1","0","20","Product Node"
"a0nE0000000VsB8IAK","0","PV-0000004345","2013-01-03 18:21:52","005E0000001h3DhIAI","2013-01-03 18:21:52","005E0000001h3DhIAI","2013-01-03 18:21:52","","a08E0000009efHsIAI","","0","2","01tE0000001IQYOIA4","0","1","a07E0000003VcjQIAS","2","1","3","Product Node"
"a0nE0000000VsB9IAK","0","PV-0000004346","2013-01-03 18:21:52","005E0000001h3DhIAI","2013-01-03 18:21:52","005E0000001h3DhIAI","2013-01-03 18:21:52","","a08E0000009efHsIAI","a07E0000003UgybIAC","1","0","","20","0","a07E0000003UgybIAC","1","0","20","Root Node"
"a0nE0000000VsBAIA0","0","PV-0000004347","2013-01-03 18:21:52","005E0000001h3DhIAI","2013-01-03 18:21:52","005E0000001h3DhIAI","2013-01-03 18:21:52","","a08E0000009efHsIAI","a07E0000003UgyqIAC","4","1","","5","1","a07E0000003UgybIAC","1","0","20","Classification Node"
"a0nE0000000VsBBIA0","0","PV-0000004348","2013-01-03 18:21:52","005E0000001h3DhIAI","2013-01-03 18:21:52","005E0000001h3DhIAI","2013-01-03 18:21:52","","a08E0000009efHsIAI","a07E0000003UgyqIAC","4","1","","5","1","a07E0000003UgyqIAC","4","1","5","Classification Node"
"a0nE0000000VsBCIA0","0","PV-0000004349","2013-01-03 18:21:52","005E0000001h3DhIAI","2013-01-03 18:21:52","005E0000001h3DhIAI","2013-01-03 18:21:52","","a08E0000009efHsIAI","","0","2","01tE0000001IQYRIA4","0","1","a07E0000003UgybIAC","1","0","20","Product Node"
"a0nE0000000VsBDIA0","0","PV-0000004350","2013-01-03 18:21:52","005E0000001h3DhIAI","2013-01-03 18:21:52","005E0000001h3DhIAI","2013-01-03 18:21:52","","a08E0000009efHsIAI","","0","2","01tE0000001IQYRIA4","0","1","a07E0000003UgyqIAC","4","1","5","Product Node"
"a0nE0000000VsBEIA0","0","PV-0000004351","2013-01-03 18:21:52","005E0000001h3DhIAI","2013-01-03 18:21:52","005E0000001h3DhIAI","2013-01-03 18:21:52","","a08E0000009efHsIAI","","0","2","01tE0000001IQYTIA4","0","1","a07E0000003UgybIAC","1","0","20","Product Node"
"a0nE0000000VsBFIA0","0","PV-0000004352","2013-01-03 18:21:52","005E0000001h3DhIAI","2013-01-03 18:21:52","005E0000001h3DhIAI","2013-01-03 18:21:52","","a08E0000009efHsIAI","","0","2","01tE0000001IQYTIA4","0","1","a07E0000003UgyqIAC","4","1","5","Product Node"
"a0nE0000000VsBGIA0","0","PV-0000004353","2013-01-03 18:21:52","005E0000001h3DhIAI","2013-01-03 18:21:52","005E0000001h3DhIAI","2013-01-03 18:21:52","","a08E0000009efHsIAI","","0","2","01tE0000001IQYUIA4","0","1","a07E0000003UgybIAC","1","0","20","Product Node"
"a0nE0000000VsBHIA0","0","PV-0000004354","2013-01-03 18:21:52","005E0000001h3DhIAI","2013-01-03 18:21:52","005E0000001h3DhIAI","2013-01-03 18:21:52","","a08E0000009efHsIAI","","0","2","01tE0000001IQYUIA4","0","1","a07E0000003UgyqIAC","4","1","5","Product Node"
"a0nE0000000VsBIIA0","0","PV-0000004355","2013-01-03 18:21:52","005E0000001h3DhIAI","2013-01-03 18:21:52","005E0000001h3DhIAI","2013-01-03 18:21:52","","a08E0000009efHsIAI","a07E0000003UgylIAC","6","1","","7","1","a07E0000003UgybIAC","1","0","20","Classification Node"
"a0nE0000000VsBJIA0","0","PV-0000004356","2013-01-03 18:21:52","005E0000001h3DhIAI","2013-01-03 18:21:52","005E0000001h3DhIAI","2013-01-03 18:21:52","","a08E0000009efHsIAI","a07E0000003UgylIAC","6","1","","7","1","a07E0000003UgylIAC","6","1","7","Classification Node"
"a0nE0000000VsBKIA0","0","PV-0000004357","2013-01-03 18:21:52","005E0000001h3DhIAI","2013-01-03 18:21:52","005E0000001h3DhIAI","2013-01-03 18:21:52","","a08E0000009efHsIAI","","0","2","01tE0000001IQYcIAO","0","1","a07E0000003UgybIAC","1","0","20","Product Node"
"a0nE0000000VsBLIA0","0","PV-0000004358","2013-01-03 18:21:52","005E0000001h3DhIAI","2013-01-03 18:21:52","005E0000001h3DhIAI","2013-01-03 18:21:52","","a08E0000009efHsIAI","","0","2","01tE0000001IQYcIAO","0","1","a07E0000003UgylIAC","6","1","7","Product Node"
"a0nE0000000VsBMIA0","0","PV-0000004359","2013-01-03 18:21:52","005E0000001h3DhIAI","2013-01-03 18:21:52","005E0000001h3DhIAI","2013-01-03 18:21:52","","a08E0000009efHsIAI","","0","2","01tE0000001IQYaIAO","0","1","a07E0000003UgybIAC","1","0","20","Product Node"
"a0nE0000000VsBNIA0","0","PV-0000004360","2013-01-03 18:21:52","005E0000001h3DhIAI","2013-01-03 18:21:52","005E0000001h3DhIAI","2013-01-03 18:21:52","","a08E0000009efHsIAI","","0","2","01tE0000001IQYaIAO","0","1","a07E0000003UgylIAC","6","1","7","Product Node"
"a0nE0000000VsBOIA0","0","PV-0000004361","2013-01-03 18:21:52","005E0000001h3DhIAI","2013-01-03 18:21:52","005E0000001h3DhIAI","2013-01-03 18:21:52","","a08E0000009efHsIAI","","0","2","01tE0000001IQYXIA4","0","1","a07E0000003UgybIAC","1","0","20","Product Node"
"a0nE0000000VsBPIA0","0","PV-0000004362","2013-01-03 18:21:52","005E0000001h3DhIAI","2013-01-03 18:21:52","005E0000001h3DhIAI","2013-01-03 18:21:52","","a08E0000009efHsIAI","","0","2","01tE0000001IQYXIA4","0","1","a07E0000003UgylIAC","6","1","7","Product Node"
"a0nE0000000VsBQIA0","0","PV-0000004363","2013-01-03 18:21:52","005E0000001h3DhIAI","2013-01-03 18:21:52","005E0000001h3DhIAI","2013-01-03 18:21:52","","a08E0000009efHsIAI","a07E0000003V1eNIAS","8","1","","9","1","a07E0000003UgybIAC","1","0","20","Classification Node"
"a0nE0000000VsBRIA0","0","PV-0000004364","2013-01-03 18:21:52","005E0000001h3DhIAI","2013-01-03 18:21:52","005E0000001h3DhIAI","2013-01-03 18:21:52","","a08E0000009efHsIAI","a07E0000003V1eNIAS","8","1","","9","1","a07E0000003V1eNIAS","8","1","9","Classification Node"
"a0nE0000000VsBSIA0","0","PV-0000004365","2013-01-03 18:21:52","005E0000001h3DhIAI","2013-01-03 18:21:52","005E0000001h3DhIAI","2013-01-03 18:21:52","","a08E0000009efHsIAI","","0","2","01tE0000001IQYVIA4","0","1","a07E0000003UgybIAC","1","0","20","Product Node"
"a0nE0000000VsBTIA0","0","PV-0000004366","2013-01-03 18:21:52","005E0000001h3DhIAI","2013-01-03 18:21:52","005E0000001h3DhIAI","2013-01-03 18:21:52","","a08E0000009efHsIAI","","0","2","01tE0000001IQYVIA4","0","1","a07E0000003V1eNIAS","8","1","9","Product Node"
"a0nE0000000VsBUIA0","0","PV-0000004367","2013-01-03 18:21:53","005E0000001h3DhIAI","2013-01-03 18:21:53","005E0000001h3DhIAI","2013-01-03 18:21:53","","a08E0000009efHsIAI","a07E0000003VAdqIAG","11","2","","12","1","a07E0000003UgybIAC","1","0","20","Classification Node"
"a0nE0000000VsBVIA0","0","PV-0000004368","2013-01-03 18:21:53","005E0000001h3DhIAI","2013-01-03 18:21:53","005E0000001h3DhIAI","2013-01-03 18:21:53","","a08E0000009efHsIAI","a07E0000003VAdqIAG","11","2","","12","1","a07E0000003UrAuIAK","10","1","19","Classification Node"
"a0nE0000000VsBWIA0","0","PV-0000004369","2013-01-03 18:21:53","005E0000001h3DhIAI","2013-01-03 18:21:53","005E0000001h3DhIAI","2013-01-03 18:21:53","","a08E0000009efHsIAI","a07E0000003VAdqIAG","11","2","","12","1","a07E0000003VAdqIAG","11","2","12","Classification Node"
"a0nE0000000VsBXIA0","0","PV-0000004370","2013-01-03 18:21:53","005E0000001h3DhIAI","2013-01-03 18:21:53","005E0000001h3DhIAI","2013-01-03 18:21:53","","a08E0000009efHsIAI","a07E0000003UrAuIAK","10","1","","19","0","a07E0000003UgybIAC","1","0","20","Classification Node"
"a0nE0000000VsBYIA0","0","PV-0000004371","2013-01-03 18:21:53","005E0000001h3DhIAI","2013-01-03 18:21:53","005E0000001h3DhIAI","2013-01-03 18:21:53","","a08E0000009efHsIAI","a07E0000003UrAuIAK","10","1","","19","0","a07E0000003UrAuIAK","10","1","19","Classification Node"
"a0nE0000000VsBZIA0","0","PV-0000004372","2013-01-03 18:21:53","005E0000001h3DhIAI","2013-01-03 18:21:53","005E0000001h3DhIAI","2013-01-03 18:21:53","","a08E0000009efHsIAI","a07E0000003VAdvIAG","14","3","","15","1","a07E0000003UgybIAC","1","0","20","Classification Node"
"a0nE0000000VsBaIAK","0","PV-0000004373","2013-01-03 18:21:53","005E0000001h3DhIAI","2013-01-03 18:21:53","005E0000001h3DhIAI","2013-01-03 18:21:53","","a08E0000009efHsIAI","a07E0000003VAdvIAG","14","3","","15","1","a07E0000003UrAuIAK","10","1","19","Classification Node"
"a0nE0000000VsBbIAK","0","PV-0000004374","2013-01-03 18:21:53","005E0000001h3DhIAI","2013-01-03 18:21:53","005E0000001h3DhIAI","2013-01-03 18:21:53","","a08E0000009efHsIAI","a07E0000003VAdvIAG","14","3","","15","1","a07E0000003VAZKIA4","13","2","16","Classification Node"
"a0nE0000000VsBcIAK","0","PV-0000004375","2013-01-03 18:21:53","005E0000001h3DhIAI","2013-01-03 18:21:53","005E0000001h3DhIAI","2013-01-03 18:21:53","","a08E0000009efHsIAI","a07E0000003VAdvIAG","14","3","","15","1","a07E0000003VAdvIAG","14","3","15","Classification Node"
"a0nE0000000VsBdIAK","0","PV-0000004376","2013-01-03 18:21:53","005E0000001h3DhIAI","2013-01-03 18:21:53","005E0000001h3DhIAI","2013-01-03 18:21:53","","a08E0000009efHsIAI","a07E0000003VAZKIA4","13","2","","16","0","a07E0000003UgybIAC","1","0","20","Classification Node"
"a0nE0000000VsBeIAK","0","PV-0000004377","2013-01-03 18:21:53","005E0000001h3DhIAI","2013-01-03 18:21:53","005E0000001h3DhIAI","2013-01-03 18:21:53","","a08E0000009efHsIAI","a07E0000003VAZKIA4","13","2","","16","0","a07E0000003UrAuIAK","10","1","19","Classification Node"
"a0nE0000000VsBfIAK","0","PV-0000004378","2013-01-03 18:21:53","005E0000001h3DhIAI","2013-01-03 18:21:53","005E0000001h3DhIAI","2013-01-03 18:21:53","","a08E0000009efHsIAI","a07E0000003VAZKIA4","13","2","","16","0","a07E0000003VAZKIA4","13","2","16","Classification Node"
"a0nE0000000VsBgIAK","0","PV-0000004379","2013-01-03 18:21:53","005E0000001h3DhIAI","2013-01-03 18:21:53","005E0000001h3DhIAI","2013-01-03 18:21:53","","a08E0000009efHsIAI","a07E0000003VAe5IAG","17","2","","18","1","a07E0000003UgybIAC","1","0","20","Classification Node"
"a0nE0000000VsBhIAK","0","PV-0000004380","2013-01-03 18:21:53","005E0000001h3DhIAI","2013-01-03 18:21:53","005E0000001h3DhIAI","2013-01-03 18:21:53","","a08E0000009efHsIAI","a07E0000003VAe5IAG","17","2","","18","1","a07E0000003UrAuIAK","10","1","19","Classification Node"
"a0nE0000000VsBiIAK","0","PV-0000004381","2013-01-03 18:21:53","005E0000001h3DhIAI","2013-01-03 18:21:53","005E0000001h3DhIAI","2013-01-03 18:21:53","","a08E0000009efHsIAI","a07E0000003VAe5IAG","17","2","","18","1","a07E0000003VAe5IAG","17","2","18","Classification Node"
"a0nE0000000WfbFIAS","0","PV-0000007917","2013-02-13 20:29:00","005E0000001hSphIAE","2013-02-13 20:29:00","005E0000001hSphIAE","2013-02-13 20:29:00","","a08E000000GFbYmIAL","a07E0000006kqyTIAQ","3","2","","4","1","a07E0000006kqxBIAQ","1","0","40","Classification Node"
"a0nE0000000WfbGIAS","0","PV-0000007918","2013-02-13 20:29:00","005E0000001hSphIAE","2013-02-13 20:29:00","005E0000001hSphIAE","2013-02-13 20:29:00","","a08E000000GFbYmIAL","a07E0000006kqyTIAQ","3","2","","4","1","a07E0000006kqyOIAQ","2","1","21","Classification Node"
"a0nE0000000WfbHIAS","0","PV-0000007919","2013-02-13 20:29:00","005E0000001hSphIAE","2013-02-13 20:29:00","005E0000001hSphIAE","2013-02-13 20:29:00","","a08E000000GFbYmIAL","a07E0000006kqyTIAQ","3","2","","4","1","a07E0000006kqyTIAQ","3","2","4","Classification Node"
"a0nE0000000WfbIIAS","0","PV-0000007920","2013-02-13 20:29:00","005E0000001hSphIAE","2013-02-13 20:29:00","005E0000001hSphIAE","2013-02-13 20:29:00","","a08E000000GFbYmIAL","","0","3","01tE0000001cQ3mIAE","0","1","a07E0000006kqxBIAQ","1","0","40","Product Node"
"a0nE0000000WfbJIAS","0","PV-0000007921","2013-02-13 20:29:00","005E0000001hSphIAE","2013-02-13 20:29:00","005E0000001hSphIAE","2013-02-13 20:29:00","","a08E000000GFbYmIAL","","0","3","01tE0000001cQ3mIAE","0","1","a07E0000006kqyOIAQ","2","1","21","Product Node"
"a0nE0000000WfbKIAS","0","PV-0000007922","2013-02-13 20:29:00","005E0000001hSphIAE","2013-02-13 20:29:00","005E0000001hSphIAE","2013-02-13 20:29:00","","a08E000000GFbYmIAL","","0","3","01tE0000001cQ3mIAE","0","1","a07E0000006kqyTIAQ","3","2","4","Product Node"
"a0nE0000000WfbLIAS","0","PV-0000007923","2013-02-13 20:29:00","005E0000001hSphIAE","2013-02-13 20:29:00","005E0000001hSphIAE","2013-02-13 20:29:00","","a08E000000GFbYmIAL","","0","3","01tE0000001cQ3hIAE","0","1","a07E0000006kqxBIAQ","1","0","40","Product Node"
"a0nE0000000WfbMIAS","0","PV-0000007924","2013-02-13 20:29:00","005E0000001hSphIAE","2013-02-13 20:29:00","005E0000001hSphIAE","2013-02-13 20:29:00","","a08E000000GFbYmIAL","","0","3","01tE0000001cQ3hIAE","0","1","a07E0000006kqyOIAQ","2","1","21","Product Node"
"a0nE0000000WfbNIAS","0","PV-0000007925","2013-02-13 20:29:00","005E0000001hSphIAE","2013-02-13 20:29:00","005E0000001hSphIAE","2013-02-13 20:29:00","","a08E000000GFbYmIAL","","0","3","01tE0000001cQ3hIAE","0","1","a07E0000006kqyTIAQ","3","2","4","Product Node"
"a0nE0000000WfbOIAS","0","PV-0000007926","2013-02-13 20:29:00","005E0000001hSphIAE","2013-02-13 20:29:00","005E0000001hSphIAE","2013-02-13 20:29:00","","a08E000000GFbYmIAL","","0","3","01tE0000001cQ3XIAU","0","1","a07E0000006kqxBIAQ","1","0","40","Product Node"
"a0nE0000000WfbPIAS","0","PV-0000007927","2013-02-13 20:29:00","005E0000001hSphIAE","2013-02-13 20:29:00","005E0000001hSphIAE","2013-02-13 20:29:00","","a08E000000GFbYmIAL","","0","3","01tE0000001cQ3XIAU","0","1","a07E0000006kqyOIAQ","2","1","21","Product Node"
"a0nE0000000WfbQIAS","0","PV-0000007928","2013-02-13 20:29:00","005E0000001hSphIAE","2013-02-13 20:29:00","005E0000001hSphIAE","2013-02-13 20:29:00","","a08E000000GFbYmIAL","","0","3","01tE0000001cQ3XIAU","0","1","a07E0000006kqyTIAQ","3","2","4","Product Node"
"a0nE0000000WfbRIAS","0","PV-0000007929","2013-02-13 20:29:00","005E0000001hSphIAE","2013-02-13 20:29:00","005E0000001hSphIAE","2013-02-13 20:29:00","","a08E000000GFbYmIAL","","0","3","01tE0000001cQ3cIAE","0","1","a07E0000006kqxBIAQ","1","0","40","Product Node"
"a0nE0000000WfbSIAS","0","PV-0000007930","2013-02-13 20:29:00","005E0000001hSphIAE","2013-02-13 20:29:00","005E0000001hSphIAE","2013-02-13 20:29:00","","a08E000000GFbYmIAL","","0","3","01tE0000001cQ3cIAE","0","1","a07E0000006kqyOIAQ","2","1","21","Product Node"
"a0nE0000000WfbTIAS","0","PV-0000007931","2013-02-13 20:29:00","005E0000001hSphIAE","2013-02-13 20:29:00","005E0000001hSphIAE","2013-02-13 20:29:00","","a08E000000GFbYmIAL","","0","3","01tE0000001cQ3cIAE","0","1","a07E0000006kqyTIAQ","3","2","4","Product Node"
"a0nE0000000WfbUIAS","0","PV-0000007932","2013-02-13 20:29:00","005E0000001hSphIAE","2013-02-13 20:29:00","005E0000001hSphIAE","2013-02-13 20:29:00","","a08E000000GFbYmIAL","","0","3","01tE0000001cQ3SIAU","0","1","a07E0000006kqxBIAQ","1","0","40","Product Node"
"a0nE0000000WfbVIAS","0","PV-0000007933","2013-02-13 20:29:00","005E0000001hSphIAE","2013-02-13 20:29:00","005E0000001hSphIAE","2013-02-13 20:29:00","","a08E000000GFbYmIAL","","0","3","01tE0000001cQ3SIAU","0","1","a07E0000006kqyOIAQ","2","1","21","Product Node"
"a0nE0000000WfbWIAS","0","PV-0000007934","2013-02-13 20:29:00","005E0000001hSphIAE","2013-02-13 20:29:00","005E0000001hSphIAE","2013-02-13 20:29:00","","a08E000000GFbYmIAL","","0","3","01tE0000001cQ3SIAU","0","1","a07E0000006kqyTIAQ","3","2","4","Product Node"
"a0nE0000000WfbXIAS","0","PV-0000007935","2013-02-13 20:29:00","005E0000001hSphIAE","2013-02-13 20:29:00","005E0000001hSphIAE","2013-02-13 20:29:00","","a08E000000GFbYmIAL","a07E0000006kqyOIAQ","2","1","","21","0","a07E0000006kqxBIAQ","1","0","40","Classification Node"
"a0nE0000000WfbYIAS","0","PV-0000007936","2013-02-13 20:29:00","005E0000001hSphIAE","2013-02-13 20:29:00","005E0000001hSphIAE","2013-02-13 20:29:00","","a08E000000GFbYmIAL","a07E0000006kqyOIAQ","2","1","","21","0","a07E0000006kqyOIAQ","2","1","21","Classification Node"
"a0nE0000000WfbZIAS","0","PV-0000007937","2013-02-13 20:29:00","005E0000001hSphIAE","2013-02-13 20:29:00","005E0000001hSphIAE","2013-02-13 20:29:00","","a08E000000GFbYmIAL","a07E0000006kqxBIAQ","1","0","","40","0","a07E0000006kqxBIAQ","1","0","40","Root Node"
"a0nE0000000WfbaIAC","0","PV-0000007938","2013-02-13 20:29:00","005E0000001hSphIAE","2013-02-13 20:29:00","005E0000001hSphIAE","2013-02-13 20:29:00","","a08E000000GFbYmIAL","a07E000000859cqIAA","5","2","","6","1","a07E0000006kqxBIAQ","1","0","40","Classification Node"
"a0nE0000000WfbbIAC","0","PV-0000007939","2013-02-13 20:29:00","005E0000001hSphIAE","2013-02-13 20:29:00","005E0000001hSphIAE","2013-02-13 20:29:00","","a08E000000GFbYmIAL","a07E000000859cqIAA","5","2","","6","1","a07E0000006kqyOIAQ","2","1","21","Classification Node"
"a0nE0000000WfbcIAC","0","PV-0000007940","2013-02-13 20:29:00","005E0000001hSphIAE","2013-02-13 20:29:00","005E0000001hSphIAE","2013-02-13 20:29:00","","a08E000000GFbYmIAL","a07E000000859cqIAA","5","2","","6","1","a07E000000859cqIAA","5","2","6","Classification Node"
"a0nE0000000WfbdIAC","0","PV-0000007941","2013-02-13 20:29:00","005E0000001hSphIAE","2013-02-13 20:29:00","005E0000001hSphIAE","2013-02-13 20:29:00","","a08E000000GFbYmIAL","","0","3","01tE0000001bnAtIAI","0","1","a07E0000006kqxBIAQ","1","0","40","Product Node"
"a0nE0000000WfbeIAC","0","PV-0000007942","2013-02-13 20:29:00","005E0000001hSphIAE","2013-02-13 20:29:00","005E0000001hSphIAE","2013-02-13 20:29:00","","a08E000000GFbYmIAL","","0","3","01tE0000001bnAtIAI","0","1","a07E0000006kqyOIAQ","2","1","21","Product Node"
"a0nE0000000WfbfIAC","0","PV-0000007943","2013-02-13 20:29:00","005E0000001hSphIAE","2013-02-13 20:29:00","005E0000001hSphIAE","2013-02-13 20:29:00","","a08E000000GFbYmIAL","","0","3","01tE0000001bnAtIAI","0","1","a07E000000859cqIAA","5","2","6","Product Node"
"a0nE0000000WfbgIAC","0","PV-0000007944","2013-02-13 20:29:00","005E0000001hSphIAE","2013-02-13 20:29:00","005E0000001hSphIAE","2013-02-13 20:29:00","","a08E000000GFbYmIAL","a07E000000859clIAA","7","2","","8","1","a07E0000006kqxBIAQ","1","0","40","Classification Node"
"a0nE0000000WfbhIAC","0","PV-0000007945","2013-02-13 20:29:00","005E0000001hSphIAE","2013-02-13 20:29:00","005E0000001hSphIAE","2013-02-13 20:29:00","","a08E000000GFbYmIAL","a07E000000859clIAA","7","2","","8","1","a07E0000006kqyOIAQ","2","1","21","Classification Node"
"a0nE0000000WfbiIAC","0","PV-0000007946","2013-02-13 20:29:00","005E0000001hSphIAE","2013-02-13 20:29:00","005E0000001hSphIAE","2013-02-13 20:29:00","","a08E000000GFbYmIAL","a07E000000859clIAA","7","2","","8","1","a07E000000859clIAA","7","2","8","Classification Node"
"a0nE0000000WfbjIAC","0","PV-0000007947","2013-02-13 20:29:00","005E0000001hSphIAE","2013-02-13 20:29:00","005E0000001hSphIAE","2013-02-13 20:29:00","","a08E000000GFbYmIAL","","0","3","01tE0000001bnAtIAI","0","1","a07E0000006kqxBIAQ","1","0","40","Product Node"
"a0nE0000000WfbkIAC","0","PV-0000007948","2013-02-13 20:29:00","005E0000001hSphIAE","2013-02-13 20:29:00","005E0000001hSphIAE","2013-02-13 20:29:00","","a08E000000GFbYmIAL","","0","3","01tE0000001bnAtIAI","0","1","a07E0000006kqyOIAQ","2","1","21","Product Node"
"a0nE0000000WfblIAC","0","PV-0000007949","2013-02-13 20:29:00","005E0000001hSphIAE","2013-02-13 20:29:00","005E0000001hSphIAE","2013-02-13 20:29:00","","a08E000000GFbYmIAL","","0","3","01tE0000001bnAtIAI","0","1","a07E000000859clIAA","7","2","8","Product Node"
"a0nE0000000WfbmIAC","0","PV-0000007950","2013-02-13 20:29:00","005E0000001hSphIAE","2013-02-13 20:29:00","005E0000001hSphIAE","2013-02-13 20:29:00","","a08E000000GFbYmIAL","a07E000000859TuIAI","9","2","","10","1","a07E0000006kqxBIAQ","1","0","40","Classification Node"
"a0nE0000000WfbnIAC","0","PV-0000007951","2013-02-13 20:29:00","005E0000001hSphIAE","2013-02-13 20:29:00","005E0000001hSphIAE","2013-02-13 20:29:00","","a08E000000GFbYmIAL","a07E000000859TuIAI","9","2","","10","1","a07E0000006kqyOIAQ","2","1","21","Classification Node"
"a0nE0000000WfboIAC","0","PV-0000007952","2013-02-13 20:29:00","005E0000001hSphIAE","2013-02-13 20:29:00","005E0000001hSphIAE","2013-02-13 20:29:00","","a08E000000GFbYmIAL","a07E000000859TuIAI","9","2","","10","1","a07E000000859TuIAI","9","2","10","Classification Node"
"a0nE0000000WfbpIAC","0","PV-0000007953","2013-02-13 20:29:00","005E0000001hSphIAE","2013-02-13 20:29:00","005E0000001hSphIAE","2013-02-13 20:29:00","","a08E000000GFbYmIAL","","0","3","01tE0000001bnAtIAI","0","1","a07E0000006kqxBIAQ","1","0","40","Product Node"
"a0nE0000000WfbqIAC","0","PV-0000007954","2013-02-13 20:29:00","005E0000001hSphIAE","2013-02-13 20:29:00","005E0000001hSphIAE","2013-02-13 20:29:00","","a08E000000GFbYmIAL","","0","3","01tE0000001bnAtIAI","0","1","a07E0000006kqyOIAQ","2","1","21","Product Node"
"a0nE0000000WfbrIAC","0","PV-0000007955","2013-02-13 20:29:00","005E0000001hSphIAE","2013-02-13 20:29:00","005E0000001hSphIAE","2013-02-13 20:29:00","","a08E000000GFbYmIAL","","0","3","01tE0000001bnAtIAI","0","1","a07E000000859TuIAI","9","2","10","Product Node"
"a0nE0000000WfbsIAC","0","PV-0000007956","2013-02-13 20:29:00","005E0000001hSphIAE","2013-02-13 20:29:00","005E0000001hSphIAE","2013-02-13 20:29:00","","a08E000000GFbYmIAL","a07E000000859cbIAA","11","2","","12","1","a07E0000006kqxBIAQ","1","0","40","Classification Node"
"a0nE0000000WfbtIAC","0","PV-0000007957","2013-02-13 20:29:00","005E0000001hSphIAE","2013-02-13 20:29:00","005E0000001hSphIAE","2013-02-13 20:29:00","","a08E000000GFbYmIAL","a07E000000859cbIAA","11","2","","12","1","a07E0000006kqyOIAQ","2","1","21","Classification Node"
"a0nE0000000WfbuIAC","0","PV-0000007958","2013-02-13 20:29:00","005E0000001hSphIAE","2013-02-13 20:29:00","005E0000001hSphIAE","2013-02-13 20:29:00","","a08E000000GFbYmIAL","a07E000000859cbIAA","11","2","","12","1","a07E000000859cbIAA","11","2","12","Classification Node"
"a0nE0000000WfbvIAC","0","PV-0000007959","2013-02-13 20:29:00","005E0000001hSphIAE","2013-02-13 20:29:00","005E0000001hSphIAE","2013-02-13 20:29:00","","a08E000000GFbYmIAL","","0","3","01tE0000001bnAtIAI","0","1","a07E0000006kqxBIAQ","1","0","40","Product Node"
"a0nE0000000WfbwIAC","0","PV-0000007960","2013-02-13 20:29:00","005E0000001hSphIAE","2013-02-13 20:29:00","005E0000001hSphIAE","2013-02-13 20:29:00","","a08E000000GFbYmIAL","","0","3","01tE0000001bnAtIAI","0","1","a07E0000006kqyOIAQ","2","1","21","Product Node"
"a0nE0000000WfbxIAC","0","PV-0000007961","2013-02-13 20:29:00","005E0000001hSphIAE","2013-02-13 20:29:00","005E0000001hSphIAE","2013-02-13 20:29:00","","a08E000000GFbYmIAL","","0","3","01tE0000001bnAtIAI","0","1","a07E000000859cbIAA","11","2","12","Product Node"
"a0nE0000000WfbyIAC","0","PV-0000007962","2013-02-13 20:29:00","005E0000001hSphIAE","2013-02-13 20:29:00","005E0000001hSphIAE","2013-02-13 20:29:00","","a08E000000GFbYmIAL","a07E000000859cWIAQ","13","2","","14","1","a07E0000006kqxBIAQ","1","0","40","Classification Node"
"a0nE0000000WfbzIAC","0","PV-0000007963","2013-02-13 20:29:00","005E0000001hSphIAE","2013-02-13 20:29:00","005E0000001hSphIAE","2013-02-13 20:29:00","","a08E000000GFbYmIAL","a07E000000859cWIAQ","13","2","","14","1","a07E0000006kqyOIAQ","2","1","21","Classification Node"
"a0nE0000000Wfc0IAC","0","PV-0000007964","2013-02-13 20:29:00","005E0000001hSphIAE","2013-02-13 20:29:00","005E0000001hSphIAE","2013-02-13 20:29:00","","a08E000000GFbYmIAL","a07E000000859cWIAQ","13","2","","14","1","a07E000000859cWIAQ","13","2","14","Classification Node"
"a0nE0000000Wfc1IAC","0","PV-0000007965","2013-02-13 20:29:00","005E0000001hSphIAE","2013-02-13 20:29:00","005E0000001hSphIAE","2013-02-13 20:29:00","","a08E000000GFbYmIAL","","0","3","01tE0000001bnAtIAI","0","1","a07E0000006kqxBIAQ","1","0","40","Product Node"
"a0nE0000000Wfc2IAC","0","PV-0000007966","2013-02-13 20:29:00","005E0000001hSphIAE","2013-02-13 20:29:00","005E0000001hSphIAE","2013-02-13 20:29:00","","a08E000000GFbYmIAL","","0","3","01tE0000001bnAtIAI","0","1","a07E0000006kqyOIAQ","2","1","21","Product Node"
"a0nE0000000Wfc3IAC","0","PV-0000007967","2013-02-13 20:29:00","005E0000001hSphIAE","2013-02-13 20:29:00","005E0000001hSphIAE","2013-02-13 20:29:00","","a08E000000GFbYmIAL","","0","3","01tE0000001bnAtIAI","0","1","a07E000000859cWIAQ","13","2","14","Product Node"
"a0nE0000000Wfc4IAC","0","PV-0000007968","2013-02-13 20:29:00","005E0000001hSphIAE","2013-02-13 20:29:00","005E0000001hSphIAE","2013-02-13 20:29:00","","a08E000000GFbYmIAL","a07E000000859cMIAQ","15","2","","16","1","a07E0000006kqxBIAQ","1","0","40","Classification Node"
"a0nE0000000Wfc5IAC","0","PV-0000007969","2013-02-13 20:29:00","005E0000001hSphIAE","2013-02-13 20:29:00","005E0000001hSphIAE","2013-02-13 20:29:00","","a08E000000GFbYmIAL","a07E000000859cMIAQ","15","2","","16","1","a07E0000006kqyOIAQ","2","1","21","Classification Node"
"a0nE0000000Wfc6IAC","0","PV-0000007970","2013-02-13 20:29:00","005E0000001hSphIAE","2013-02-13 20:29:00","005E0000001hSphIAE","2013-02-13 20:29:00","","a08E000000GFbYmIAL","a07E000000859cMIAQ","15","2","","16","1","a07E000000859cMIAQ","15","2","16","Classification Node"
"a0nE0000000Wfc7IAC","0","PV-0000007971","2013-02-13 20:29:00","005E0000001hSphIAE","2013-02-13 20:29:00","005E0000001hSphIAE","2013-02-13 20:29:00","","a08E000000GFbYmIAL","","0","3","01tE0000001bnAtIAI","0","1","a07E0000006kqxBIAQ","1","0","40","Product Node"
"a0nE0000000Wfc8IAC","0","PV-0000007972","2013-02-13 20:29:00","005E0000001hSphIAE","2013-02-13 20:29:00","005E0000001hSphIAE","2013-02-13 20:29:00","","a08E000000GFbYmIAL","","0","3","01tE0000001bnAtIAI","0","1","a07E0000006kqyOIAQ","2","1","21","Product Node"
"a0nE0000000Wfc9IAC","0","PV-0000007973","2013-02-13 20:29:00","005E0000001hSphIAE","2013-02-13 20:29:00","005E0000001hSphIAE","2013-02-13 20:29:00","","a08E000000GFbYmIAL","","0","3","01tE0000001bnAtIAI","0","1","a07E000000859cMIAQ","15","2","16","Product Node"
"a0nE0000000WfcAIAS","0","PV-0000007974","2013-02-13 20:29:01","005E0000001hSphIAE","2013-02-13 20:29:01","005E0000001hSphIAE","2013-02-13 20:29:01","","a08E000000GFbYmIAL","a07E000000859cHIAQ","17","2","","18","1","a07E0000006kqxBIAQ","1","0","40","Classification Node"
"a0nE0000000WfcBIAS","0","PV-0000007975","2013-02-13 20:29:01","005E0000001hSphIAE","2013-02-13 20:29:01","005E0000001hSphIAE","2013-02-13 20:29:01","","a08E000000GFbYmIAL","a07E000000859cHIAQ","17","2","","18","1","a07E0000006kqyOIAQ","2","1","21","Classification Node"
"a0nE0000000WfcCIAS","0","PV-0000007976","2013-02-13 20:29:01","005E0000001hSphIAE","2013-02-13 20:29:01","005E0000001hSphIAE","2013-02-13 20:29:01","","a08E000000GFbYmIAL","a07E000000859cHIAQ","17","2","","18","1","a07E000000859cHIAQ","17","2","18","Classification Node"
"a0nE0000000WfcDIAS","0","PV-0000007977","2013-02-13 20:29:01","005E0000001hSphIAE","2013-02-13 20:29:01","005E0000001hSphIAE","2013-02-13 20:29:01","","a08E000000GFbYmIAL","","0","3","01tE0000001bnAtIAI","0","1","a07E0000006kqxBIAQ","1","0","40","Product Node"
"a0nE0000000WfcEIAS","0","PV-0000007978","2013-02-13 20:29:01","005E0000001hSphIAE","2013-02-13 20:29:01","005E0000001hSphIAE","2013-02-13 20:29:01","","a08E000000GFbYmIAL","","0","3","01tE0000001bnAtIAI","0","1","a07E0000006kqyOIAQ","2","1","21","Product Node"
"a0nE0000000WfcFIAS","0","PV-0000007979","2013-02-13 20:29:01","005E0000001hSphIAE","2013-02-13 20:29:01","005E0000001hSphIAE","2013-02-13 20:29:01","","a08E000000GFbYmIAL","","0","3","01tE0000001bnAtIAI","0","1","a07E000000859cHIAQ","17","2","18","Product Node"
"a0nE0000000WfcGIAS","0","PV-0000007980","2013-02-13 20:29:01","005E0000001hSphIAE","2013-02-13 20:29:01","005E0000001hSphIAE","2013-02-13 20:29:01","","a08E000000GFbYmIAL","a07E0000006kqyYIAQ","19","2","","20","1","a07E0000006kqxBIAQ","1","0","40","Classification Node"
"a0nE0000000WfcHIAS","0","PV-0000007981","2013-02-13 20:29:01","005E0000001hSphIAE","2013-02-13 20:29:01","005E0000001hSphIAE","2013-02-13 20:29:01","","a08E000000GFbYmIAL","a07E0000006kqyYIAQ","19","2","","20","1","a07E0000006kqyOIAQ","2","1","21","Classification Node"
"a0nE0000000WfcIIAS","0","PV-0000007982","2013-02-13 20:29:01","005E0000001hSphIAE","2013-02-13 20:29:01","005E0000001hSphIAE","2013-02-13 20:29:01","","a08E000000GFbYmIAL","a07E0000006kqyYIAQ","19","2","","20","1","a07E0000006kqyYIAQ","19","2","20","Classification Node"
"a0nE0000000WfcJIAS","0","PV-0000007983","2013-02-13 20:29:01","005E0000001hSphIAE","2013-02-13 20:29:01","005E0000001hSphIAE","2013-02-13 20:29:01","","a08E000000GFbYmIAL","","0","3","01tE0000001cQ41IAE","0","1","a07E0000006kqxBIAQ","1","0","40","Product Node"
"a0nE0000000WfcKIAS","0","PV-0000007984","2013-02-13 20:29:01","005E0000001hSphIAE","2013-02-13 20:29:01","005E0000001hSphIAE","2013-02-13 20:29:01","","a08E000000GFbYmIAL","","0","3","01tE0000001cQ41IAE","0","1","a07E0000006kqyOIAQ","2","1","21","Product Node"
"a0nE0000000WfcLIAS","0","PV-0000007985","2013-02-13 20:29:01","005E0000001hSphIAE","2013-02-13 20:29:01","005E0000001hSphIAE","2013-02-13 20:29:01","","a08E000000GFbYmIAL","","0","3","01tE0000001cQ41IAE","0","1","a07E0000006kqyYIAQ","19","2","20","Product Node"
"a0nE0000000WfcMIAS","0","PV-0000007986","2013-02-13 20:29:01","005E0000001hSphIAE","2013-02-13 20:29:01","005E0000001hSphIAE","2013-02-13 20:29:01","","a08E000000GFbYmIAL","","0","3","01tE0000001cQ3wIAE","0","1","a07E0000006kqxBIAQ","1","0","40","Product Node"
"a0nE0000000WfcNIAS","0","PV-0000007987","2013-02-13 20:29:01","005E0000001hSphIAE","2013-02-13 20:29:01","005E0000001hSphIAE","2013-02-13 20:29:01","","a08E000000GFbYmIAL","","0","3","01tE0000001cQ3wIAE","0","1","a07E0000006kqyOIAQ","2","1","21","Product Node"
"a0nE0000000WfcOIAS","0","PV-0000007988","2013-02-13 20:29:01","005E0000001hSphIAE","2013-02-13 20:29:01","005E0000001hSphIAE","2013-02-13 20:29:01","","a08E000000GFbYmIAL","","0","3","01tE0000001cQ3wIAE","0","1","a07E0000006kqyYIAQ","19","2","20","Product Node"
"a0nE0000000WfcPIAS","0","PV-0000007989","2013-02-13 20:29:01","005E0000001hSphIAE","2013-02-13 20:29:01","005E0000001hSphIAE","2013-02-13 20:29:01","","a08E000000GFbYmIAL","","0","3","01tE0000001cQ3rIAE","0","1","a07E0000006kqxBIAQ","1","0","40","Product Node"
"a0nE0000000WfcQIAS","0","PV-0000007990","2013-02-13 20:29:01","005E0000001hSphIAE","2013-02-13 20:29:01","005E0000001hSphIAE","2013-02-13 20:29:01","","a08E000000GFbYmIAL","","0","3","01tE0000001cQ3rIAE","0","1","a07E0000006kqyOIAQ","2","1","21","Product Node"
"a0nE0000000WfcRIAS","0","PV-0000007991","2013-02-13 20:29:01","005E0000001hSphIAE","2013-02-13 20:29:01","005E0000001hSphIAE","2013-02-13 20:29:01","","a08E000000GFbYmIAL","","0","3","01tE0000001cQ3rIAE","0","1","a07E0000006kqyYIAQ","19","2","20","Product Node"
"a0nE0000000WfcSIAS","0","PV-0000007992","2013-02-13 20:29:01","005E0000001hSphIAE","2013-02-13 20:29:01","005E0000001hSphIAE","2013-02-13 20:29:01","","a08E000000GFbYmIAL","","0","3","01tE0000001cQ46IAE","0","1","a07E0000006kqxBIAQ","1","0","40","Product Node"
"a0nE0000000WfcTIAS","0","PV-0000007993","2013-02-13 20:29:01","005E0000001hSphIAE","2013-02-13 20:29:01","005E0000001hSphIAE","2013-02-13 20:29:01","","a08E000000GFbYmIAL","","0","3","01tE0000001cQ46IAE","0","1","a07E0000006kqyOIAQ","2","1","21","Product Node"
"a0nE0000000WfcUIAS","0","PV-0000007994","2013-02-13 20:29:01","005E0000001hSphIAE","2013-02-13 20:29:01","005E0000001hSphIAE","2013-02-13 20:29:01","","a08E000000GFbYmIAL","","0","3","01tE0000001cQ46IAE","0","1","a07E0000006kqyYIAQ","19","2","20","Product Node"
"a0nE0000000WfcVIAS","0","PV-0000007995","2013-02-13 20:29:01","005E0000001hSphIAE","2013-02-13 20:29:01","005E0000001hSphIAE","2013-02-13 20:29:01","","a08E000000GFbYmIAL","a07E0000006kqzbIAA","23","2","","24","1","a07E0000006kqxBIAQ","1","0","40","Classification Node"
"a0nE0000000WfcWIAS","0","PV-0000007996","2013-02-13 20:29:01","005E0000001hSphIAE","2013-02-13 20:29:01","005E0000001hSphIAE","2013-02-13 20:29:01","","a08E000000GFbYmIAL","a07E0000006kqzbIAA","23","2","","24","1","a07E0000006kqy4IAA","22","1","31","Classification Node"
"a0nE0000000WfcXIAS","0","PV-0000007997","2013-02-13 20:29:01","005E0000001hSphIAE","2013-02-13 20:29:01","005E0000001hSphIAE","2013-02-13 20:29:01","","a08E000000GFbYmIAL","a07E0000006kqzbIAA","23","2","","24","1","a07E0000006kqzbIAA","23","2","24","Classification Node"
"a0nE0000000WfcYIAS","0","PV-0000007998","2013-02-13 20:29:01","005E0000001hSphIAE","2013-02-13 20:29:01","005E0000001hSphIAE","2013-02-13 20:29:01","","a08E000000GFbYmIAL","","0","3","01tE0000001cQ3SIAU","0","1","a07E0000006kqxBIAQ","1","0","40","Product Node"
"a0nE0000000WfcZIAS","0","PV-0000007999","2013-02-13 20:29:01","005E0000001hSphIAE","2013-02-13 20:29:01","005E0000001hSphIAE","2013-02-13 20:29:01","","a08E000000GFbYmIAL","","0","3","01tE0000001cQ3SIAU","0","1","a07E0000006kqy4IAA","22","1","31","Product Node"
"a0nE0000000WfcaIAC","0","PV-0000008000","2013-02-13 20:29:01","005E0000001hSphIAE","2013-02-13 20:29:01","005E0000001hSphIAE","2013-02-13 20:29:01","","a08E000000GFbYmIAL","","0","3","01tE0000001cQ3SIAU","0","1","a07E0000006kqzbIAA","23","2","24","Product Node"
"a0nE0000000WfcbIAC","0","PV-0000008001","2013-02-13 20:29:01","005E0000001hSphIAE","2013-02-13 20:29:01","005E0000001hSphIAE","2013-02-13 20:29:01","","a08E000000GFbYmIAL","a07E0000006kqy4IAA","22","1","","31","0","a07E0000006kqxBIAQ","1","0","40","Classification Node"
"a0nE0000000WfccIAC","0","PV-0000008002","2013-02-13 20:29:01","005E0000001hSphIAE","2013-02-13 20:29:01","005E0000001hSphIAE","2013-02-13 20:29:01","","a08E000000GFbYmIAL","a07E0000006kqy4IAA","22","1","","31","0","a07E0000006kqy4IAA","22","1","31","Classification Node"
"a0nE0000000WfcdIAC","0","PV-0000008003","2013-02-13 20:29:01","005E0000001hSphIAE","2013-02-13 20:29:01","005E0000001hSphIAE","2013-02-13 20:29:01","","a08E000000GFbYmIAL","a07E0000006kqzlIAA","25","2","","26","1","a07E0000006kqxBIAQ","1","0","40","Classification Node"
"a0nE0000000WfceIAC","0","PV-0000008004","2013-02-13 20:29:01","005E0000001hSphIAE","2013-02-13 20:29:01","005E0000001hSphIAE","2013-02-13 20:29:01","","a08E000000GFbYmIAL","a07E0000006kqzlIAA","25","2","","26","1","a07E0000006kqy4IAA","22","1","31","Classification Node"
"a0nE0000000WfcfIAC","0","PV-0000008005","2013-02-13 20:29:01","005E0000001hSphIAE","2013-02-13 20:29:01","005E0000001hSphIAE","2013-02-13 20:29:01","","a08E000000GFbYmIAL","a07E0000006kqzlIAA","25","2","","26","1","a07E0000006kqzlIAA","25","2","26","Classification Node"
"a0nE0000000WfcgIAC","0","PV-0000008006","2013-02-13 20:29:01","005E0000001hSphIAE","2013-02-13 20:29:01","005E0000001hSphIAE","2013-02-13 20:29:01","","a08E000000GFbYmIAL","","0","3","01tE0000001cfzPIAQ","0","1","a07E0000006kqxBIAQ","1","0","40","Product Node"
"a0nE0000000WfchIAC","0","PV-0000008007","2013-02-13 20:29:01","005E0000001hSphIAE","2013-02-13 20:29:01","005E0000001hSphIAE","2013-02-13 20:29:01","","a08E000000GFbYmIAL","","0","3","01tE0000001cfzPIAQ","0","1","a07E0000006kqy4IAA","22","1","31","Product Node"
"a0nE0000000WfciIAC","0","PV-0000008008","2013-02-13 20:29:01","005E0000001hSphIAE","2013-02-13 20:29:01","005E0000001hSphIAE","2013-02-13 20:29:01","","a08E000000GFbYmIAL","","0","3","01tE0000001cfzPIAQ","0","1","a07E0000006kqzlIAA","25","2","26","Product Node"
"a0nE0000000WfcjIAC","0","PV-0000008009","2013-02-13 20:29:01","005E0000001hSphIAE","2013-02-13 20:29:01","005E0000001hSphIAE","2013-02-13 20:29:01","","a08E000000GFbYmIAL","a07E0000006kqzgIAA","27","2","","28","1","a07E0000006kqxBIAQ","1","0","40","Classification Node"
"a0nE0000000WfckIAC","0","PV-0000008010","2013-02-13 20:29:01","005E0000001hSphIAE","2013-02-13 20:29:01","005E0000001hSphIAE","2013-02-13 20:29:01","","a08E000000GFbYmIAL","a07E0000006kqzgIAA","27","2","","28","1","a07E0000006kqy4IAA","22","1","31","Classification Node"
"a0nE0000000WfclIAC","0","PV-0000008011","2013-02-13 20:29:01","005E0000001hSphIAE","2013-02-13 20:29:01","005E0000001hSphIAE","2013-02-13 20:29:01","","a08E000000GFbYmIAL","a07E0000006kqzgIAA","27","2","","28","1","a07E0000006kqzgIAA","27","2","28","Classification Node"
"a0nE0000000WfcmIAC","0","PV-0000008012","2013-02-13 20:29:01","005E0000001hSphIAE","2013-02-13 20:29:01","005E0000001hSphIAE","2013-02-13 20:29:01","","a08E000000GFbYmIAL","a07E0000006kqzqIAA","29","2","","30","1","a07E0000006kqxBIAQ","1","0","40","Classification Node"
"a0nE0000000WfcnIAC","0","PV-0000008013","2013-02-13 20:29:01","005E0000001hSphIAE","2013-02-13 20:29:01","005E0000001hSphIAE","2013-02-13 20:29:01","","a08E000000GFbYmIAL","a07E0000006kqzqIAA","29","2","","30","1","a07E0000006kqy4IAA","22","1","31","Classification Node"
"a0nE0000000WfcoIAC","0","PV-0000008014","2013-02-13 20:29:01","005E0000001hSphIAE","2013-02-13 20:29:01","005E0000001hSphIAE","2013-02-13 20:29:01","","a08E000000GFbYmIAL","a07E0000006kqzqIAA","29","2","","30","1","a07E0000006kqzqIAA","29","2","30","Classification Node"
"a0nE0000000WfcpIAC","0","PV-0000008015","2013-02-13 20:29:01","005E0000001hSphIAE","2013-02-13 20:29:01","005E0000001hSphIAE","2013-02-13 20:29:01","","a08E000000GFbYmIAL","a07E0000006kr00IAA","33","2","","34","1","a07E0000006kqxBIAQ","1","0","40","Classification Node"
"a0nE0000000WfcqIAC","0","PV-0000008016","2013-02-13 20:29:01","005E0000001hSphIAE","2013-02-13 20:29:01","005E0000001hSphIAE","2013-02-13 20:29:01","","a08E000000GFbYmIAL","a07E0000006kr00IAA","33","2","","34","1","a07E0000006kqxzIAA","32","1","39","Classification Node"
"a0nE0000000WfcrIAC","0","PV-0000008017","2013-02-13 20:29:01","005E0000001hSphIAE","2013-02-13 20:29:01","005E0000001hSphIAE","2013-02-13 20:29:01","","a08E000000GFbYmIAL","a07E0000006kr00IAA","33","2","","34","1","a07E0000006kr00IAA","33","2","34","Classification Node"
"a0nE0000000WfcsIAC","0","PV-0000008018","2013-02-13 20:29:01","005E0000001hSphIAE","2013-02-13 20:29:01","005E0000001hSphIAE","2013-02-13 20:29:01","","a08E000000GFbYmIAL","","0","3","01tE0000001cfznIAA","0","1","a07E0000006kqxBIAQ","1","0","40","Product Node"
"a0nE0000000WfctIAC","0","PV-0000008019","2013-02-13 20:29:01","005E0000001hSphIAE","2013-02-13 20:29:01","005E0000001hSphIAE","2013-02-13 20:29:01","","a08E000000GFbYmIAL","","0","3","01tE0000001cfznIAA","0","1","a07E0000006kqxzIAA","32","1","39","Product Node"
"a0nE0000000WfcuIAC","0","PV-0000008020","2013-02-13 20:29:01","005E0000001hSphIAE","2013-02-13 20:29:01","005E0000001hSphIAE","2013-02-13 20:29:01","","a08E000000GFbYmIAL","","0","3","01tE0000001cfznIAA","0","1","a07E0000006kr00IAA","33","2","34","Product Node"
"a0nE0000000WfcvIAC","0","PV-0000008021","2013-02-13 20:29:01","005E0000001hSphIAE","2013-02-13 20:29:01","005E0000001hSphIAE","2013-02-13 20:29:01","","a08E000000GFbYmIAL","a07E0000006kqxzIAA","32","1","","39","0","a07E0000006kqxBIAQ","1","0","40","Classification Node"
"a0nE0000000WfcwIAC","0","PV-0000008022","2013-02-13 20:29:01","005E0000001hSphIAE","2013-02-13 20:29:01","005E0000001hSphIAE","2013-02-13 20:29:01","","a08E000000GFbYmIAL","a07E0000006kqxzIAA","32","1","","39","0","a07E0000006kqxzIAA","32","1","39","Classification Node"
"a0nE0000000WfcxIAC","0","PV-0000008023","2013-02-13 20:29:02","005E0000001hSphIAE","2013-02-13 20:29:02","005E0000001hSphIAE","2013-02-13 20:29:02","","a08E000000GFbYmIAL","a07E0000006kqzxIAA","35","2","","36","1","a07E0000006kqxBIAQ","1","0","40","Classification Node"
"a0nE0000000WfcyIAC","0","PV-0000008024","2013-02-13 20:29:02","005E0000001hSphIAE","2013-02-13 20:29:02","005E0000001hSphIAE","2013-02-13 20:29:02","","a08E000000GFbYmIAL","a07E0000006kqzxIAA","35","2","","36","1","a07E0000006kqxzIAA","32","1","39","Classification Node"
"a0nE0000000WfczIAC","0","PV-0000008025","2013-02-13 20:29:02","005E0000001hSphIAE","2013-02-13 20:29:02","005E0000001hSphIAE","2013-02-13 20:29:02","","a08E000000GFbYmIAL","a07E0000006kqzxIAA","35","2","","36","1","a07E0000006kqzxIAA","35","2","36","Classification Node"
"a0nE0000000Wfd0IAC","0","PV-0000008026","2013-02-13 20:29:02","005E0000001hSphIAE","2013-02-13 20:29:02","005E0000001hSphIAE","2013-02-13 20:29:02","","a08E000000GFbYmIAL","","0","3","01tE0000001cfzsIAA","0","1","a07E0000006kqxBIAQ","1","0","40","Product Node"
"a0nE0000000Wfd1IAC","0","PV-0000008027","2013-02-13 20:29:02","005E0000001hSphIAE","2013-02-13 20:29:02","005E0000001hSphIAE","2013-02-13 20:29:02","","a08E000000GFbYmIAL","","0","3","01tE0000001cfzsIAA","0","1","a07E0000006kqxzIAA","32","1","39","Product Node"
"a0nE0000000Wfd2IAC","0","PV-0000008028","2013-02-13 20:29:02","005E0000001hSphIAE","2013-02-13 20:29:02","005E0000001hSphIAE","2013-02-13 20:29:02","","a08E000000GFbYmIAL","","0","3","01tE0000001cfzsIAA","0","1","a07E0000006kqzxIAA","35","2","36","Product Node"
"a0nE0000000Wfd3IAC","0","PV-0000008029","2013-02-13 20:29:02","005E0000001hSphIAE","2013-02-13 20:29:02","005E0000001hSphIAE","2013-02-13 20:29:02","","a08E000000GFbYmIAL","a07E0000006kr05IAA","37","2","","38","1","a07E0000006kqxBIAQ","1","0","40","Classification Node"
"a0nE0000000Wfd4IAC","0","PV-0000008030","2013-02-13 20:29:02","005E0000001hSphIAE","2013-02-13 20:29:02","005E0000001hSphIAE","2013-02-13 20:29:02","","a08E000000GFbYmIAL","a07E0000006kr05IAA","37","2","","38","1","a07E0000006kqxzIAA","32","1","39","Classification Node"
"a0nE0000000Wfd5IAC","0","PV-0000008031","2013-02-13 20:29:02","005E0000001hSphIAE","2013-02-13 20:29:02","005E0000001hSphIAE","2013-02-13 20:29:02","","a08E000000GFbYmIAL","a07E0000006kr05IAA","37","2","","38","1","a07E0000006kr05IAA","37","2","38","Classification Node"
